{"type": "FeatureCollection", "features": [ {"type": "Feature", "properties": {"norad_id": 42969, "name": "SENTINEL-5P", "group": "resource", "lat": -26.929570813426995, "lon": 97.8152112818642, "alt_km": 833.0121680494512, "timestamp": "2025-12-09T16:56:36.237661+00:00", "meta": {"OBJECT_NAME": "SENTINEL-5P", "OBJECT_ID": "2017-064A", "EPOCH": "2025-12-09T10:53:44.001600", "MEAN_MOTION": 14.19516274, "ECCENTRICITY": 9.56e-05, "INCLINATION": 98.7781, "RA_OF_ASC_NODE": 282.0673, "ARG_OF_PERICENTER": 87.4839, "MEAN_ANOMALY": 272.6447, "EPHEMERIS_TYPE": 0, "CLASSIFICATION_TYPE": "U", "NORAD_CAT_ID": 42969, "ELEMENT_SET_NO": 999, "REV_AT_EPOCH": 42264, "BSTAR": 0.00010969, "MEAN_MOTION_DOT": 1.87e-06, "MEAN_MOTION_DDOT": 0}, "tle": {"line1": "1 42969U 17064A   25343.45398150  .00000187  00000+0  10969-3 0  9993", "line2": "2 42969  98.7781 282.0673 0000956  87.4839 272.6447 14.19516274422649"}}, "geometry": {"type": "Point", "coordinates": [97.8152112818642, -26.929570813426995]}}, {"type": "Feature", "properties": {"norad_id": 42987, "name": "SKYSAT-C11", "group": "resource", "lat": 6.820177705946074, "lon": 120.23066745269641, "alt_km": 427.0495720199333, "timestamp": "2025-12-09T16:56:36.237672+00:00", "meta": {"OBJECT_NAME": "SKYSAT-C11", "OBJECT_ID": "2017-068A", "EPOCH": "2025-12-09T09:09:10.541664", "MEAN_MOTION": 15.47229769, "ECCENTRICITY": 9.33e-05, "INCLINATION": 97.4143, "RA_OF_ASC_NODE": 120.7906, "ARG_OF_PERICENTER": 105.2384, "MEAN_ANOMALY": 254.8969, "EPHEMERIS_TYPE": 0, "CLASSIFICATION_TYPE": "U", "NORAD_CAT_ID": 42987, "ELEMENT_SET_NO": 999, "REV_AT_EPOCH": 45379, "BSTAR": 0.00057839, "MEAN_MOTION_DOT": 0.00029408, "MEAN_MOTION_DDOT": 0}, "tle": {"line1": "1 42987U 17068A   25343.38137201  .00029408  00000+0  57839-3 0  9991", "line2": "2 42987  97.4143 120.7906 0000933 105.2384 254.8969 15.47229769453796"}}, "geometry": {"type": "Point", "coordinates": [120.23066745269641, 6.820177705946074]}}, {"type": "Feature", "properties": {"norad_id": 42988, "name": "SKYSAT-C10", "group": "resource", "lat": -73.14986715993999, "lon": -90.95990004631024, "alt_km": 480.20820175489735, "timestamp": "2025-12-09T16:56:36.237682+00:00", "meta": {"OBJECT_NAME": "SKYSAT-C10", "OBJECT_ID": "2017-068B", "EPOCH": "2025-12-09T07:59:47.838912", "MEAN_MOTION": 15.31948454, "ECCENTRICITY": 0.0005328, "INCLINATION": 97.4261, "RA_OF_ASC_NODE": 114.1753, "ARG_OF_PERICENTER": 113.1089, "MEAN_ANOMALY": 247.0714, "EPHEMERIS_TYPE": 0, "CLASSIFICATION_TYPE": "U", "NORAD_CAT_ID": 42988, "ELEMENT_SET_NO": 999, "REV_AT_EPOCH": 45327, "BSTAR": 0.00050153, "MEAN_MOTION_DOT": 0.00015413, "MEAN_MOTION_DDOT": 0}, "tle": {"line1": "1 42988U 17068B   25343.33319258  .00015413  00000+0  50153-3 0  9994", "line2": "2 42988  97.4261 114.1753 0005328 113.1089 247.0714 15.31948454453275"}}, "geometry": {"type": "Point", "coordinates": [-90.95990004631024, -73.14986715993999]}}, {"type": "Feature", "properties": {"norad_id": 42989, "name": "SKYSAT-C9", "group": "resource", "lat": 58.00932399499873, "lon": 101.89513725085358, "alt_km": 446.88827586028674, "timestamp": "2025-12-09T16:56:36.237693+00:00", "meta": {"OBJECT_NAME": "SKYSAT-C9", "OBJECT_ID": "2017-068C", "EPOCH": "2025-12-09T08:52:14.036160", "MEAN_MOTION": 15.35916317, "ECCENTRICITY": 0.0010693, "INCLINATION": 97.4191, "RA_OF_ASC_NODE": 113.5973, "ARG_OF_PERICENTER": 98.5106, "MEAN_ANOMALY": 261.735, "EPHEMERIS_TYPE": 0, "CLASSIFICATION_TYPE": "U", "NORAD_CAT_ID": 42989, "ELEMENT_SET_NO": 999, "REV_AT_EPOCH": 45356, "BSTAR": 0.00052582, "MEAN_MOTION_DOT": 0.00018356, "MEAN_MOTION_DDOT": 0}, "tle": {"line1": "1 42989U 17068C   25343.36960690  .00018356  00000+0  52582-3 0  9997", "line2": "2 42989  97.4191 113.5973 0010693  98.5106 261.7350 15.35916317453560"}}, "geometry": {"type": "Point", "coordinates": [101.89513725085358, 58.00932399499873]}}, {"type": "Feature", "properties": {"norad_id": 42990, "name": "SKYSAT-C8", "group": "resource", "lat": 62.80539690852879, "lon": 98.98346907036799, "alt_km": 460.75770267277676, "timestamp": "2025-12-09T16:56:36.237703+00:00", "meta": {"OBJECT_NAME": "SKYSAT-C8", "OBJECT_ID": "2017-068D", "EPOCH": "2025-12-09T08:49:56.866656", "MEAN_MOTION": 15.3280298, "ECCENTRICITY": 0.0001807, "INCLINATION": 97.4282, "RA_OF_ASC_NODE": 113.3541, "ARG_OF_PERICENTER": 2.8529, "MEAN_ANOMALY": 357.2723, "EPHEMERIS_TYPE": 0, "CLASSIFICATION_TYPE": "U", "NORAD_CAT_ID": 42990, "ELEMENT_SET_NO": 999, "REV_AT_EPOCH": 45319, "BSTAR": 0.0004918, "MEAN_MOTION_DOT": 0.00015517, "MEAN_MOTION_DDOT": 0}, "tle": {"line1": "1 42990U 17068D   25343.36801929  .00015517  00000+0  49180-3 0  9994", "line2": "2 42990  97.4282 113.3541 0001807   2.8529 357.2723 15.32802980453197"}}, "geometry": {"type": "Point", "coordinates": [98.98346907036799, 62.80539690852879]}}, {"type": "Feature", "properties": {"norad_id": 42991, "name": "SKYSAT-C7", "group": "resource", "lat": -72.7537558330281, "lon": 139.59200110739303, "alt_km": 480.6469173329415, "timestamp": "2025-12-09T16:56:36.237714+00:00", "meta": {"OBJECT_NAME": "SKYSAT-C7", "OBJECT_ID": "2017-068E", "EPOCH": "2025-12-09T07:51:48.807072", "MEAN_MOTION": 15.32208172, "ECCENTRICITY": 0.0007776, "INCLINATION": 97.429, "RA_OF_ASC_NODE": 114.3574, "ARG_OF_PERICENTER": 67.8691, "MEAN_ANOMALY": 292.3376, "EPHEMERIS_TYPE": 0, "CLASSIFICATION_TYPE": "U", "NORAD_CAT_ID": 42991, "ELEMENT_SET_NO": 999, "REV_AT_EPOCH": 45325, "BSTAR": 0.00049179, "MEAN_MOTION_DOT": 0.00015242, "MEAN_MOTION_DDOT": 0}, "tle": {"line1": "1 42991U 17068E   25343.32764823  .00015242  00000+0  49179-3 0  9995", "line2": "2 42991  97.4290 114.3574 0007776  67.8691 292.3376 15.32208172453259"}}, "geometry": {"type": "Point", "coordinates": [139.59200110739303, -72.7537558330281]}}, {"type": "Feature", "properties": {"norad_id": 42992, "name": "SKYSAT-C6", "group": "resource", "lat": 51.01233295286276, "lon": 105.89690344754318, "alt_km": 464.2373180038494, "timestamp": "2025-12-09T16:56:36.237724+00:00", "meta": {"OBJECT_NAME": "SKYSAT-C6", "OBJECT_ID": "2017-068F", "EPOCH": "2025-12-09T08:52:39.969984", "MEAN_MOTION": 15.31378628, "ECCENTRICITY": 0.0005226, "INCLINATION": 97.4323, "RA_OF_ASC_NODE": 114.8411, "ARG_OF_PERICENTER": 91.9107, "MEAN_ANOMALY": 268.2733, "EPHEMERIS_TYPE": 0, "CLASSIFICATION_TYPE": "U", "NORAD_CAT_ID": 42992, "ELEMENT_SET_NO": 999, "REV_AT_EPOCH": 45324, "BSTAR": 0.00048597, "MEAN_MOTION_DOT": 0.00014667, "MEAN_MOTION_DDOT": 0}, "tle": {"line1": "1 42992U 17068F   25343.36990706  .00014667  00000+0  48597-3 0  9994", "line2": "2 42992  97.4323 114.8411 0005226  91.9107 268.2733 15.31378628453241"}}, "geometry": {"type": "Point", "coordinates": [105.89690344754318, 51.01233295286276]}}, {"type": "Feature", "properties": {"norad_id": 43111, "name": "CARTOSAT-2F", "group": "resource", "lat": -67.7758304124055, "lon": 60.02226978720626, "alt_km": 515.8666174876325, "timestamp": "2025-12-09T16:56:36.237735+00:00", "meta": {"OBJECT_NAME": "CARTOSAT-2F", "OBJECT_ID": "2018-004A", "EPOCH": "2025-12-09T12:30:16.036416", "MEAN_MOTION": 15.19225187, "ECCENTRICITY": 6.86e-05, "INCLINATION": 97.4312, "RA_OF_ASC_NODE": 41.2107, "ARG_OF_PERICENTER": 140.3986, "MEAN_ANOMALY": 219.7299, "EPHEMERIS_TYPE": 0, "CLASSIFICATION_TYPE": "U", "NORAD_CAT_ID": 43111, "ELEMENT_SET_NO": 999, "REV_AT_EPOCH": 43853, "BSTAR": 0.00043412, "MEAN_MOTION_DOT": 9.08e-05, "MEAN_MOTION_DDOT": 0}, "tle": {"line1": "1 43111U 18004A   25343.52101894  .00009080  00000+0  43412-3 0  9993", "line2": "2 43111  97.4312  41.2107 0000686 140.3986 219.7299 15.19225187438537"}}, "geometry": {"type": "Point", "coordinates": [60.02226978720626, -67.7758304124055]}}, {"type": "Feature", "properties": {"norad_id": 43259, "name": "GAOFEN-1 02", "group": "resource", "lat": 15.75785608640002, "lon": -136.20829426484863, "alt_km": 640.7230428116363, "timestamp": "2025-12-09T16:56:36.237745+00:00", "meta": {"OBJECT_NAME": "GAOFEN-1 02", "OBJECT_ID": "2018-031A", "EPOCH": "2025-12-09T12:57:00.262368", "MEAN_MOTION": 14.76471918, "ECCENTRICITY": 0.0001419, "INCLINATION": 98.0806, "RA_OF_ASC_NODE": 41.3277, "ARG_OF_PERICENTER": 223.9744, "MEAN_ANOMALY": 136.1353, "EPHEMERIS_TYPE": 0, "CLASSIFICATION_TYPE": "U", "NORAD_CAT_ID": 43259, "ELEMENT_SET_NO": 999, "REV_AT_EPOCH": 41471, "BSTAR": 0.00029646, "MEAN_MOTION_DOT": 2.012e-05, "MEAN_MOTION_DDOT": 0}, "tle": {"line1": "1 43259U 18031A   25343.53958637  .00002012  00000+0  29646-3 0  9993", "line2": "2 43259  98.0806  41.3277 0001419 223.9744 136.1353 14.76471918414713"}}, "geometry": {"type": "Point", "coordinates": [-136.20829426484863, 15.75785608640002]}}, {"type": "Feature", "properties": {"norad_id": 43260, "name": "GAOFEN-1 03", "group": "resource", "lat": -77.61879015960221, "lon": 81.6993378448855, "alt_km": 647.0965965546475, "timestamp": "2025-12-09T16:56:36.237755+00:00", "meta": {"OBJECT_NAME": "GAOFEN-1 03", "OBJECT_ID": "2018-031B", "EPOCH": "2025-12-09T12:25:41.700000", "MEAN_MOTION": 14.76427476, "ECCENTRICITY": 0.00022, "INCLINATION": 98.0803, "RA_OF_ASC_NODE": 41.1831, "ARG_OF_PERICENTER": 336.2847, "MEAN_ANOMALY": 23.8261, "EPHEMERIS_TYPE": 0, "CLASSIFICATION_TYPE": "U", "NORAD_CAT_ID": 43260, "ELEMENT_SET_NO": 999, "REV_AT_EPOCH": 41470, "BSTAR": 0.00026076, "MEAN_MOTION_DOT": 1.761e-05, "MEAN_MOTION_DDOT": 0}, "tle": {"line1": "1 43260U 18031B   25343.51784375  .00001761  00000+0  26076-3 0  9993", "line2": "2 43260  98.0803  41.1831 0002200 336.2847  23.8261 14.76427476414706"}}, "geometry": {"type": "Point", "coordinates": [81.6993378448855, -77.61879015960221]}}]}